GLOBALSTAR M023         
1 25621U 99004A   24356.17038674  .00000021  00000+0  69366-3 0  9999
2 25621  52.0094 235.5058 0010919  92.3592  79.3665 12.62491004193330
GLOBALSTAR M040         
1 25622U 99004B   24355.72955830 -.00000037  00000+0  37142-3 0  9997
2 25622  51.9907 240.7352 0001540  39.0647 358.0213 12.61995187192724
GLOBALSTAR M036         
1 25623U 99004C   24355.95484159 -.00000020  00000+0  91410-3 0  9994
2 25623  51.9991 350.0990 0011084  71.6482 307.5250 11.86584422157828
GLOBALSTAR M038         
1 25624U 99004D   24356.11342938 -.00000069  00000+0  21216-3 0  9992
2 25624  51.9953 224.4014 0002908  54.8200 111.9419 12.32516385180379
GLOBALSTAR M022         
1 25649U 99012A   24355.88520318 -.00000086  00000+0  16153-4 0  9995
2 25649  52.0059  55.6054 0002756 169.3759   1.9595 12.02493564154920
GLOBALSTAR M041         
1 25650U 99012B   24355.88750015 -.00000015  00000+0  90294-3 0  9995
2 25650  52.0032 291.6171 0002380 343.4480  16.6279 11.96664572156930
GLOBALSTAR M046         
1 25651U 99012C   24355.76905235 -.00000187  00000+0 -10821-2 0  9997
2 25651  52.0076  12.5688 0002088 252.4274 278.8192 12.09403370162077
GLOBALSTAR M037         
1 25652U 99012D   24356.11876986 -.00000088  00000+0  87862-4 0  9998
2 25652  52.0023   6.3439 0002090 148.8805 283.1462 12.62429590188838
